{
    "links": {
        "self": "http://www.neowsapp.com/rest/v1/neo/3873324?api_key=iIulBulltgU6a56xZRHN4H3l9WmuAYTsLGpBGhQ2"
    },
    "id": "3873324",
    "neo_reference_id": "3873324",
    "name": "(2019 TY)",
    "designation": "2019 TY",
    "nasa_jpl_url": "http://ssd.jpl.nasa.gov/sbdb.cgi?sstr=3873324",
    "absolute_magnitude_h": 22.7,
    "estimated_diameter": {
        "kilometers": {
            "estimated_diameter_min": 0.0766575574,
            "estimated_diameter_max": 0.1714115092
        },
        "meters": {
            "estimated_diameter_min": 76.6575573531,
            "estimated_diameter_max": 171.4115092306
        },
        "miles": {
            "estimated_diameter_min": 0.0476327831,
            "estimated_diameter_max": 0.1065101409
        },
        "feet": {
            "estimated_diameter_min": 251.5011804664,
            "estimated_diameter_max": 562.3737359442
        }
    },
    "is_potentially_hazardous_asteroid": false,
    "close_approach_data": [
        {
            "close_approach_date": "2019-10-09",
            "close_approach_date_full": "2019-Oct-09 05:12",
            "epoch_date_close_approach": 1570597920000,
            "relative_velocity": {
                "kilometers_per_second": "12.2537636665",
                "kilometers_per_hour": "44113.5491995508",
                "miles_per_hour": "27410.4439456876"
            },
            "miss_distance": {
                "astronomical": "0.116042759",
                "lunar": "45.140633251",
                "kilometers": "17359749.57532333",
                "miles": "10786848.193308754"
            },
            "orbiting_body": "Earth"
        }
    ],
    "orbital_data": {
        "orbit_id": "3",
        "orbit_determination_date": "2019-11-01 08:12:32",
        "first_observation_date": "2019-09-27",
        "last_observation_date": "2019-10-31",
        "data_arc_in_days": 34,
        "observations_used": 19,
        "orbit_uncertainty": "8",
        "minimum_orbit_intersection": ".074128",
        "jupiter_tisserand_invariant": "3.129",
        "epoch_osculation": "2458759.5",
        "eccentricity": ".6186927620054556",
        "semi_major_axis": "2.562119817049196",
        "inclination": "5.41062663972442",
        "ascending_node_longitude": "161.5007446132974",
        "orbital_period": "1497.950906898629",
        "perihelion_distance": ".9769548308501163",
        "perihelion_argument": "254.4888327489221",
        "aphelion_distance": "4.147284803248276",
        "perihelion_time": "2458794.790723648360",
        "mean_anomaly": "351.5186402605721",
        "mean_motion": ".2403283033790121",
        "equinox": "J2000",
        "orbit_class": {
            "orbit_class_type": "APO",
            "orbit_class_description": "Near-Earth asteroid orbits which cross the Earth’s orbit similar to that of 1862 Apollo",
            "orbit_class_range": "a (semi-major axis) > 1.0 AU; q (perihelion) < 1.017 AU"
        }
    },
    "is_sentry_object": false
}